stage,siteId,aksArc-lnet-dnsServers,domainFqdn,aksArc-lnet-defaultGateway,rdmaEnabled,aksArc-lnet-endingAddress,location,servers,city,adouSuffix,storageConnectivitySwitchless,rbacAdminGroupObjectIds,companyName,phone,streetAddress1,mobile,serverPorts,domainServerIP,dnsServers,aksArc-controlPlaneIp,aksArc-lnet-addressPrefix,emailList,virtualHostIp,contactName,enableProvisioners,dcPort,defaultGateway,aksArc-lnet-startingAddress,stateOrProvince,startingAddress,authenticationMethod,storageNetworks,country,managementAdapters,postalCode,endingAddress
dev,contoso," [""192.168.1.254""]"," ""jumpstart.local"""," ""192.168.1.1"""," false"," ""192.168.1.190"""," ""eastus"""," [
    {
      name        = ""AzSHOST1"",
      ipv4Address = ""192.168.1.12""
    },
    {
      name        = ""AzSHOST2"",
      ipv4Address = ""192.168.1.13""
    }
  ]"," ""redmond"""," ""DC=jumpstart,DC=local"""," false"," [""1b81c027-029d-434d-9642-376e392bfe65""]"," ""contoso"""," ""xxxx"""," ""1 microsoft way"""," ""xxxx"""," {
    ""AzSHOST1"" = 15985,
    ""AzSHOST2"" = 25985
  }"," ""192.168.1.254"""," [""192.168.1.254""]"," ""192.168.1.190"""," ""192.168.1.0/24"""," [""xxx@contoso.com""]"," ""10.0.0.7"""," ""qfai"""," true"," 6985"," ""192.168.1.1"""," ""192.168.1.171"""," ""unkown"""," ""192.168.1.55"""," ""Credssp"""," [
    {
      name               = ""Storage1Network"",
      networkAdapterName = ""StorageA"",
      vlanId             = ""711""
    },
    {
      name               = ""Storage2Network"",
      networkAdapterName = ""StorageB"",
      vlanId             = ""712""
    }
  ]"," ""US"""," [""FABRIC"", ""FABRIC2""]"," ""4331"""," ""192.168.1.65"""
dev,,,,,,,,,,,,,,,,,,,,,,,,,,,,,,,,,,,
dev,,,,,,,,,,,,,,,,,,,,,,,,,,,,,,,,,,,
dev,,,,,,,,,,,,,,,,,,,,,,,,,,,,,,,,,,,
dev,,,,,,,,,,,,,,,,,,,,,,,,,,,,,,,,,,,
dev,,,,,,,,,,,,,,,,,,,,,,,,,,,,,,,,,,,